C/2009 P2 (Boattini),h,02/12.8332/2010,163.4368,60.4883,76.2757,1.002459,6.537838,2000,6.0,4.0
# From MPC 75710
P/2009 Q1 (Hill),e,14.4967,173.9498,157.4174,5.511946,0.0761634,0.49411762,180.6188,12/19.0/2015,2000,g 11.5,4.0
# From MPC 72850
P/2009 Q4 (Boattini),e,10.9799,127.5939,320.1269,3.136457,0.1774374,0.58015727,33.4700,12/19.0/2015,2000,g 15.5,4.0
# From MPC 68902
P/2009 Q5 (McNaught),e,40.8539,160.1777,209.2767,7.455313,0.0484178,0.60699791,111.2427,12/19.0/2015,2000,g 10.0,4.0
# From MPC 82315
C/2009 R1 (McNaught),h,07/02.3585/2010,77.1093,322.3305,130.8957,1.000378,0.410619,2000,8.0,4.0
# From MPC 75711
P/2009 S2 (McNaught),e,28.4142,121.5806,230.4038,4.168386,0.1158116,0.46871585,275.0670,12/19.0/2015,2000,g 14.0,4.0
# From MPC 87062
C/2009 S3 (Lemmon),e,60.4287,225.1509,129.8330,11307,0.0000008,0.99942723,0.0000,12/11.6554/2011,2000,g  6.5,4.0
# From MPC 78184
P/2009 SK280 (Spacewatch-Hill),e,16.8036,36.4250,328.0937,4.777246,0.0943925,0.11853165,227.1856,12/19.0/2015,2000,g 11.0,4.0
# From MPC 76567
C/2009 T1 (McNaught),e,89.9831,54.4383,282.6628,1026,0.0000300,0.99392557,0.0000,10/07.2410/2009,2000,g  6.5,4.0
# From MPC 75711
P/2009 T2 (La Sagra),e,27.5469,215.7596,216.5773,7.730546,0.0458552,0.76603931,99.4540,12/19.0/2015,2000,g 14.0,4.0
# From MPC 82315
C/2009 T3 (LINEAR),h,01/13.1788/2010,148.6679,60.1501,32.5034,1.000051,2.277057,2000,12.5,4.0
# From MPC 70812
C/2009 U3 (Hill),e,51.1318,49.1617,77.8060,180.0564,0.0004079,0.99214607,0.0000,03/20.9055/2010,2000,g 13.0,4.0
# From MPC 75711
P/2009 U4 (McNaught),e,10.0810,55.3957,259.8883,5.074955,0.0862096,0.67495799,198.4120,12/19.0/2015,2000,g 14.0,4.0
# From MPC 82315
C/2009 U5 (Grauer),h,06/24.5268/2010,25.4628,120.9910,24.1830,1.004514,6.110531,2000,7.0,4.0
# From MPC 82315
C/2009 UG89 (Lemmon),h,12/13.7802/2010,130.0683,321.0552,60.5675,1.005712,3.930685,2000,9.0,4.0
# From MPC 72851
C/2009 W2 (Boattini),e,164.5061,199.6242,121.7266,6255,0.0000020,0.99889297,0.0000,05/06.4347/2010,2000,g  7.0,4.0
# From MPC 75711
P/2009 WX51 (Catalina),e,9.6003,31.6797,118.0844,3.075227,0.1827630,0.74106190,32.3020,12/19.0/2015,2000,g 19.0,2.0
# From MPC 82316
C/2009 Y1 (Catalina),e,107.3492,160.3700,127.3202,361.0780,0.0001436,0.99304236,0.0000,01/29.5208/2011,2000,g  9.0,4.0
# From MPC 74247
P/2009 Y2 (Kowalski),e,29.9727,262.0100,172.4173,6.535425,0.0589920,0.63872660,123.3780,12/19.0/2015,2000,g 13.0,4.0
# From MPC 69417
P/2010 A1 (Hill),e,10.3124,47.3450,13.3599,4.385194,0.1073299,0.55429366,249.3703,12/19.0/2015,2000,g 13.0,4.0
# From MPC 86226
P/2010 A2 (LINEAR),e,5.2564,320.2276,132.8678,2.290391,0.2843410,0.12457727,267.4983,12/19.0/2015,2000,g 15.5,4.0
# From MPC 75711
P/2010 A3 (Hill),e,15.0058,64.7618,41.3907,6.070922,0.0658904,0.73271845,137.3400,12/19.0/2015,2000,g 14.0,4.0
# From MPC 77403
C/2010 A4 (Siding Spring),e,96.8079,346.7468,271.6862,283.6545,0.0002063,0.99036288,0.0000,10/09.6637/2010,2000,g 12.5,4.0
# From MPC 72851
P/2010 A5 (LINEAR),e,5.7841,277.7846,306.8638,5.092623,0.0857614,0.66470852,177.4342,12/19.0/2015,2000,g 13.0,4.0
# From MPC 80896
C/2010 B1 (Cardinal),h,02/07.9762/2011,101.9302,277.2256,211.6830,1.000215,2.947249,2000,7.5,4.0
# From MPC 75712
P/2010 B2 (WISE),e,8.9386,0.8519,155.9408,3.106204,0.1800359,0.48105976,33.9496,12/19.0/2015,2000,g 17.0,4.0
# From MPC 75008
P/2010 C1 (Scotti),e,9.1406,141.8787,3.9028,7.084640,0.0522670,0.26126383,115.2958,12/19.0/2015,2000,g  9.5,4.0
# From MPC 75712
P/2010 D1 (WISE),e,9.6306,160.8108,226.2428,4.162873,0.1160418,0.35432078,275.1241,12/19.0/2015,2000,g 13.0,4.0
# From MPC 75008
P/2010 D2 (WISE),e,57.1237,319.7838,120.3822,6.709280,0.0567140,0.45192025,120.0241,12/19.0/2015,2000,g 16.0,4.0
# From MPC 84315
C/2010 D3 (WISE),e,76.3670,255.1668,304.5395,67033,0.0000001,0.99993677,0.0000,09/04.1206/2010,2000,g  9.0,4.0
# From MPC 76025
C/2010 D4 (WISE),e,105.6988,266.7963,44.3066,62.07764,0.0020151,0.88492031,4.9556,12/19.0/2015,2000,g  6.5,4.0
# From MPC 74248
C/2010 DG56 (WISE),e,160.4090,4.1462,318.5286,68.48717,0.0017390,0.97682758,0.0000,05/16.8099/2010,2000,g 16.0,4.0
# From MPC 70361
C/2010 E1 (Garradd),e,71.5939,169.1254,297.1297,113.0597,0.0008199,0.97636819,0.0000,11/06.8587/2009,2000,g 11.5,4.0
# From MPC 75009
P/2010 E2 (Jarnac),e,15.4714,177.8071,8.2247,8.614746,0.0389799,0.72278598,81.0464,12/19.0/2015,2000,g 14.0,4.0
# From MPC 70361
C/2010 E5 (Scotti),e,18.9086,16.9217,147.9229,24.90596,0.0079296,0.84395007,17.5861,12/19.0/2015,2000,g 10.5,4.0
# From MPC 72132
C/2010 F1 (Boattini),e,64.8461,344.2624,127.6957,69.68096,0.0016945,0.94832996,3.7790,12/19.0/2015,2000,g  9.5,4.0
# From MPC 82316
C/2010 F3 (Scotti),e,4.6503,157.3091,31.3061,63.76228,0.0019358,0.91461023,3.7977,12/19.0/2015,2000,g  8.5,4.0
# From MPC 82316
C/2010 FB87 (WISE-Garradd),e,107.7378,89.9432,265.0356,222.3539,0.0002973,0.98717591,0.0000,11/04.8051/2010,2000,g 10.0,4.0
# From MPC 70816
C/2010 G1 (Boattini),e,78.3714,287.4193,168.8221,540.9757,0.0000783,0.99775560,0.0000,04/02.4243/2010,2000,g 12.5,4.0
# From MPC 83142
C/2010 G2 (Hill),e,103.7685,246.9069,137.4768,94.03279,0.0010809,0.97889972,0.0000,09/01.6801/2011,2000,g  8.0,4.0
# From MPC 75292
C/2010 G3 (WISE),e,108.2248,313.7615,75.1583,1066,0.0000283,0.99539370,0.0000,04/07.9343/2010,2000,g  8.5,4.0
# From MPC 82316
C/2010 H1 (Garradd),e,36.6118,347.3559,233.6959,1931,0.0000116,0.99858387,0.0000,06/19.9415/2010,2000,g 13.0,4.0
# From MPC 72851
P/2010 H2 (Vales),e,14.2625,64.2975,129.6528,3.840941,0.1309325,0.19377562,276.4902,12/19.0/2015,2000,g  6.0,4.0
# From MPC 70361
P/2010 H3 (SOHO),e,23.8948,78.3266,24.8590,3.068773,0.1833399,0.98469446,0.0000,09/25.8189/2015,2000,g 20.0,2.0
# From MPC 73463
P/2010 H4 (Scotti),e,2.3226,44.7592,179.2576,6.581444,0.0583744,0.26864681,117.3984,12/19.0/2015,2000,g 10.5,4.0
# From MPC 74637
P/2010 H5 (Scotti),e,14.0860,24.8062,174.6506,7.133247,0.0517337,0.15658857,107.4629,12/19.0/2015,2000,g 13.0,2.0
# From MPC 71278
C/2010 J1 (Boattini),e,134.4344,254.7308,332.8464,36.03549,0.0045563,0.95316102,9.7712,12/19.0/2015,2000,g 12.0,4.0
# From MPC 75712
C/2010 J2 (McNaught),e,125.8478,311.8716,4.4774,1873,0.0000122,0.99819801,0.0000,06/02.8295/2010,2000,g  9.0,4.0
# From MPC 82316
P/2010 J3 (McMillan),e,13.2555,106.5564,157.3758,8.960311,0.0367468,0.72656267,71.4171,12/19.0/2015,2000,g 11.0,4.0
# From MPC 76025
P/2010 J5 (McNaught),e,7.3555,65.6622,148.8811,4.103662,0.1185623,0.08714129,266.4476,12/19.0/2015,2000,g 10.0,4.0
# From MPC 84315
P/2010 JC81 (WISE),e,38.6165,30.8290,12.6428,8.137256,0.0424607,0.77633203,72.1530,12/19.0/2015,2000,g  9.0,4.0
# From MPC 74248
C/2010 KW7 (WISE),e,147.0810,104.9153,332.6003,97.14137,0.0010294,0.97341445,0.0000,10/10.9122/2010,2000,g 15.0,2.0
# From MPC 83518
C/2010 L3 (Catalina),h,11/10.9033/2010,102.5247,38.2855,121.8131,1.002033,9.887486,2000,4.5,4.0
# From MPC 74248
C/2010 L4 (WISE),e,102.8657,125.5572,95.6978,80.05422,0.0013760,0.96483104,2.9210,12/19.0/2015,2000,g 11.5,4.0
# From MPC 74248
C/2010 L5 (WISE),e,146.8763,206.3826,214.3699,8.031720,0.0433003,0.90281214,89.4423,12/19.0/2015,2000,g 18.0,4.0
# From MPC 70817
C/2010 M1 (Gibbs),p,02/07.840/2012,78.373,265.318,2.29869,82.150,2000,9.0,4.0
# From MPC 75712
P/2010 N1 (WISE),e,15.3616,106.1076,160.8116,3.289342,0.1652116,0.49673488,325.5943,12/19.0/2015,2000,g 17.0,4.0
# From MPC 73463
P/2010 P4 (WISE),e,24.0794,2.2354,354.1607,3.703913,0.1382652,0.49746234,275.8749,12/19.0/2015,2000,g 19.5,6.0
# From MPC 88325
C/2010 R1 (LINEAR),e,156.9239,343.6771,114.5088,20439,0.0000003,0.99972465,0.0000,05/17.2115/2012,2000,g  6.0,4.0
# From MPC 95208
C/2010 S1 (LINEAR),h,05/20.0198/2013,125.3200,93.4346,118.5752,1.002985,5.897892,2000,3.5,4.0
# From MPC 74248
P/2010 T2 (PANSTARRS),e,8.0289,59.5818,355.9189,5.492695,0.0765642,0.31623405,124.4797,12/19.0/2015,2000,g 11.5,4.0
# From MPC 81468
P/2010 TO20 (LINEAR-Grauer),e,2.4819,43.3080,272.3178,5.795954,0.0706345,0.05506473,176.4845,12/19.0/2015,2000,g  9.0,4.0
# From MPC 82316
P/2010 U1 (Boattini),e,8.2292,280.8986,86.3976,6.514946,0.0592704,0.24872735,126.7145,12/19.0/2015,2000,g  9.5,4.0
# From MPC 74249
P/2010 U2 (Hill),e,16.8310,357.1130,44.4255,4.281119,0.1112674,0.40060507,207.8959,12/19.0/2015,2000,g 13.0,4.0
# From MPC 96864
C/2010 U3 (Boattini),h,02/24.8799/2019,55.4979,43.0578,88.0210,1.002632,8.447892,2000,1.0,4.0
# From MPC 79021
P/2010 UH55 (Spacewatch),e,8.6688,235.2568,222.0944,6.557529,0.0586940,0.57614184,98.6283,12/19.0/2015,2000,g 11.0,4.0
# From MPC 91611
P/2010 V1 (Ikeya-Murakami),e,9.3875,3.7791,152.4037,3.079048,0.1824229,0.48928334,345.0120,12/19.0/2015,2000,g  8.0,4.0
# From MPC 75009
P/2010 WK (LINEAR),e,11.4234,11.4249,41.1541,5.751602,0.0714531,0.69016232,134.9663,12/19.0/2015,2000,g 14.5,2.0
# From MPC 76025
C/2010 X1 (Elenin),e,1.8638,322.3452,344.3570,483.9864,0.0000926,0.99901650,0.0000,09/09.4296/2011,2000,g 10.0,4.0
# From MPC 82317
P/2011 A2 (Scotti),e,4.4753,54.6767,94.6458,3.104658,0.1801704,0.49980569,327.9255,12/19.0/2015,2000,g 16.5,4.0
# From MPC 85831
C/2011 A3 (Gibbs),e,26.0800,124.8792,141.0106,719.7025,0.0000510,0.99675356,0.0000,12/16.2488/2011,2000,g 10.0,4.0
# From MPC 82317
C/2011 C1 (McNaught),e,16.3061,191.2290,85.7609,490.5601,0.0000907,0.99819505,0.0000,04/17.2574/2011,2000,g 15.5,4.0
# From MPC 84021
P/2011 C2 (Gibbs),e,10.8907,12.1144,160.8465,7.398126,0.0489803,0.27138055,70.4450,12/19.0/2015,2000,g  9.0,4.0
# From MPC 75516
C/2011 C3 (Gibbs),e,49.5106,20.8340,206.7432,285.2347,0.0002046,0.99470091,0.0000,04/08.1194/2011,2000,g 17.0,4.0
# From MPC 86639
P/2011 CR42 (Catalina),e,8.4635,58.7262,173.2680,3.506111,0.1501293,0.28054043,222.2540,12/19.0/2015,2000,g 13.0,2.0
# From MPC 89309
C/2011 F1 (LINEAR),e,56.6459,85.0753,192.4845,2128,0.0000100,0.99914654,0.0000,01/07.8822/2013,2000,g  5.0,4.0
# From MPC 79866
P/2011 FR143 (Lemmon),e,16.0176,190.9267,349.9945,6.836452,0.0551389,0.45407211,96.1222,12/19.0/2015,2000,g 14.0,2.0
# From MPC 80044
